Province,Type,Subregion,Name,Latitude,Longitude,Tel
Eastern Cape,Police,Kubusiedrift,Kubusiedrift,-32.56819,27.62384,
Eastern Cape,Police,Stutterheim,Stutterheim,-32.57118,27.42741,
Eastern Cape,Police,Motherwell,Motherwell,-33.79664,25.58419,
Eastern Cape,Police,Kwadwesi,Kwadwesi,-33.84109,25.52347,
Eastern Cape,Police,Cradock,Cradock,-32.1756,25.62571,
Eastern Cape,Police,Indwe,Indwe,-31.47124,27.33555,
Eastern Cape,Police,Rossouw,Rossouw,-31.16777,27.27997,
Eastern Cape,Police,Elands Height,Elands Height,-30.80423,28.22494,
Eastern Cape,Police,Maclear,Maclear,-31.06708,28.34897,
Eastern Cape,Police,Wolwefontein,Wolwefontein,-33.29291,24.82834,
Eastern Cape,Police,Addo,Addo,-33.54769,25.69029,
Eastern Cape,Police,Msobomvu,Msobomvu,-32.32437,28.186,
Eastern Cape,Police,Ntabankulu,Ntabankulu,-30.95517,29.30275,
Eastern Cape,Police,Maluti,Maluti,-30.26205,28.78647,
Eastern Cape,Police,Lukholweni,Lukholweni,-30.64249,28.85494,
Eastern Cape,Police,Komga,Komga,-32.57532,27.89203,
Eastern Cape,Police,Grahamstown,Grahamstown,-33.31163,26.53445,
Eastern Cape,Police,Maletswai,Maletswai,-30.69442,26.69165,
Eastern Cape,Police,Kei Mouth,Kei Mouth,-32.6788,28.37477,
Eastern Cape,Police,King William'S Town,King William'S Town,-32.87139,27.39139,
Eastern Cape,Police,Kei Road,Kei Road,-32.70575,27.54653,
Eastern Cape,Police,Kidds Beach,Kidds Beach,-33.14929,27.69525,
Eastern Cape,Police,Punzana,Punzana,-33.06903,27.44577,
Eastern Cape,Police,Centane,Centane,-32.51021,28.3202,
Eastern Cape,Police,Ezibeleni,Ezibeleni,-31.90484,26.95282,
Eastern Cape,Police,Idutywa,Idutywa,-32.10058,28.30797,
Eastern Cape,Police,Floukraal,Floukraal,-30.99623,27.05484,
Eastern Cape,Police,Jamestown,Jamestown,-31.1205,26.81023,
Eastern Cape,Police,Lady Grey,Lady Grey,-30.71202,27.20923,
Eastern Cape,Police,Molteno,Molteno,-31.39491,26.36142,
Eastern Cape,Police,Nemato,Nemato,-33.57672,26.89275,
Eastern Cape,Police,East London,East London,-33.02058,27.90288,
Eastern Cape,Police,Flagstaff,Flagstaff,-31.08187,29.49472,
Eastern Cape,Police,Bizana,Bizana,-30.85428,29.85939,
Eastern Cape,Police,Bridge Camp,Bridge Camp,-32.02197,27.3588,
Eastern Cape,Police,Ngqeleni,Ngqeleni,-31.67193,29.03225,
Eastern Cape,Police,Duncan Village,Duncan Village,-33.00505,27.88872,
Eastern Cape,Police,Gonubie,Gonubie,-32.9366,28.00084,
Eastern Cape,Police,Bluewater,Bluewater,-32.72743,27.95053,
Eastern Cape,Police,Beacon Bay,Beacon Bay,-32.96884,27.93836,
Eastern Cape,Police,Berlin,Berlin,-32.87859,27.5732,
Eastern Cape,Police,Moyeni,Moyeni,-33.48006,27.13021,
Eastern Cape,Police,Inyibiba,Inyibiba,-32.95596,27.69467,
Eastern Cape,Police,Whittlesea,Whittlesea,-32.17097,26.82443,
Eastern Cape,Police,Kleinbulhoek,Kleinbulhoek,-32.16655,26.575,
Eastern Cape,Police,Henderson,Henderson,-32.3144,27.33609,
Eastern Cape,Police,Cedarville,Cedarville,-30.39106,29.04574,
Eastern Cape,Police,Vulindlela,Vulindlela,-32.92197,27.71242,
Eastern Cape,Police,Ilinge,Ilinge,-31.97622,27.03843,
Eastern Cape,Police,Queenstown,Queenstown,-31.89704,26.87144,
Eastern Cape,Police,Kwanobuhle,Kwanobuhle,-33.81395,25.39782,
Eastern Cape,Police,Bathurst,Bathurst,-33.50484,26.83917,
Eastern Cape,Police,Hankey,Hankey,-33.83223,24.88528,
Eastern Cape,Police,Humansdorp,Humansdorp,-34.02798,24.77275,
Eastern Cape,Police,Kareedouw,Kareedouw,-33.95386,24.29433,
Eastern Cape,Police,Kirkwood,Kirkwood,-33.39892,25.44409,
Eastern Cape,Police,Storms River,Storms River,-33.97407,23.8889,
Eastern Cape,Police,Bethelsdorp,Bethelsdorp,-33.87062,25.51261,
Eastern Cape,Police,Despatch,Despatch,-33.80317,25.47264,
Eastern Cape,Police,Kolomane,Kolomane,-32.42247,26.78883,
Eastern Cape,Police,Mthatha,Mthatha,-31.58173,28.77164,
Eastern Cape,Police,Healdtown,Healdtown,-32.74839,26.64999,
Eastern Cape,Police,Gelvandale,Gelvandale,-33.91055,25.5503,
Eastern Cape,Police,Kenton On Sea,Kenton On Sea,-33.68053,26.66674,
Eastern Cape,Police,Ida,Ida,-31.40925,27.55116,
Eastern Cape,Police,Aliwal North,Aliwal North,-30.68748,26.71103,
Eastern Cape,Police,Steynsburg,Steynsburg,-31.29284,25.82328,
Eastern Cape,Police,Burgersdorp,Burgersdorp,-30.99708,26.33273,
Eastern Cape,Police,Fort Beaufort,Fort Beaufort,-32.77701,26.63555,
Eastern Cape,Police,Kinkelbos,Kinkelbos,-33.64669,25.87827,
Eastern Cape,Police,Kwazakele,Kwazakele,-33.87626,25.58308,
Eastern Cape,Police,Mpisi,Mpisi,-31.14658,29.93013,
Eastern Cape,Police,Phumalanga,Phumalanga,-30.57749,27.57751,
Eastern Cape,Police,Cofimvaba,Cofimvaba,-32.00375,27.58411,
Eastern Cape,Police,Bedford,Bedford,-32.68363,26.08275,
Eastern Cape,Police,Sterkstroom,Sterkstroom,-31.55052,26.55598,
Eastern Cape,Police,Graaff-Reinet,Graaff-Reinet,-32.25286,24.53989,
Eastern Cape,Police,Dimbaza,Dimbaza,-32.83365,27.20597,
Eastern Cape,Police,Elliotdale,Elliotdale,-31.96778,28.68342,
Eastern Cape,Police,Lusikisiki,Lusikisiki,-31.36889,29.57499,
Eastern Cape,Police,Mzamba,Mzamba,-31.07529,30.18437,
Eastern Cape,Police,Sterkspruit,Sterkspruit,-30.52837,27.37134,
Eastern Cape,Police,Tsomo,Tsomo,-32.03707,27.81802,
Eastern Cape,Police,Ikamvelihle,Ikamvelihle,-33.79741,25.60843,
Eastern Cape,Police,Sulenkama,Sulenkama,-31.01688,28.68437,
Eastern Cape,Police,Coffee Bay,Coffee Bay,-31.97848,29.14881,
Eastern Cape,Police,Kwaaiman,Kwaaiman,-31.9192,28.97806,
Eastern Cape,Police,Fort Brown,Fort Brown,-33.12978,26.61773,
Eastern Cape,Police,Seven Fountains,Seven Fountains,-33.44057,26.3261,
Eastern Cape,Police,Mooiplaas,Mooiplaas,-32.7383,28.05225,
Eastern Cape,Police,Hofmeyr,Hofmeyr,-31.65593,25.80221,
Eastern Cape,Police,Jeffreys Bay,Jeffreys Bay,-34.0553,24.92192,
Eastern Cape,Police,Kei Bridge,Kei Bridge,-32.50557,27.97953,
Eastern Cape,Police,Swartkops,Swartkops,-33.85136,25.60443,
Eastern Cape,Police,Doringkloof,Doringkloof,-32.45969,26.51463,
Eastern Cape,Police,Willowmore,Willowmore,-33.29543,23.48728,
Eastern Cape,Police,Mount Road,Mount Road,-33.95494,25.59516,
Eastern Cape,Police,Kabega Park,Kabega Park,-33.93989,25.49849,
Eastern Cape,Police,Walmer,Walmer,-33.97903,25.58483,
Eastern Cape,Police,Humewood,Humewood,-33.97403,25.62617,
Eastern Cape,Police,Riebeeck East,Riebeeck East,-33.20341,26.15276,
Eastern Cape,Police,Paterson,Paterson,-33.43978,25.96983,
Eastern Cape,Police,Patensie,Patensie,-33.75645,24.81577,
Eastern Cape,Police,Mbizeni,Mbizeni,-30.75569,28.36188,
Eastern Cape,Police,Tsolo,Tsolo,-31.31138,28.75858,
Eastern Cape,Police,Jansenville,Jansenville,-32.94236,24.66876,
Eastern Cape,Police,Chungwa,Chungwa,-32.83898,27.15612,
Eastern Cape,Police,Tyefu,Tyefu,-33.12668,26.90461,
Eastern Cape,Police,Hamburg,Hamburg,-33.28897,27.46711,
Eastern Cape,Police,Chalumna,Chalumna,-33.13694,27.53995,
Eastern Cape,Police,Zamuxolo,Zamuxolo,-30.59053,28.26695,
Eastern Cape,Police,Tabase,Tabase,-30.52585,28.31933,
Eastern Cape,Police,Katkop,Katkop,-30.88541,28.51182,
Eastern Cape,Police,Avondale,Avondale,-30.29751,28.40448,
Eastern Cape,Police,Afsondering,Afsondering,-30.16502,28.96145,
Eastern Cape,Police,Macleantown,Macleantown,-32.78686,27.74466,
Eastern Cape,Police,Bityi,Bityi,-31.80929,28.53375,
Eastern Cape,Police,Libode,Libode,-31.53967,29.01552,
Eastern Cape,Police,Qumbu,Qumbu,-31.16497,28.87266,
Eastern Cape,Police,Alicedale,Alicedale,-33.31668,26.08514,
Eastern Cape,Police,Palmietfontein,Palmietfontein,-30.42178,27.54181,
Eastern Cape,Police,Thomas River,Thomas River,-32.45155,27.25308,
Eastern Cape,Police,Tylden,Tylden,-32.11508,27.0706,
Eastern Cape,Police,Hogsback,Hogsback,-32.60057,26.93696,
Eastern Cape,Police,Kwandengane,Kwandengane,-31.054979,29.75814,
Eastern Cape,Police,Joza,Joza,-33.28478,26.57081,
Eastern Cape,Police,Ntabethemba,Ntabethemba,-32.03171,26.48029,
Eastern Cape,Police,Thornhill Ciskei,Thornhill Ciskei,-31.98433,26.6089,
Eastern Cape,Police,Ngangelizwe,Ngangelizwe,-31.60532,28.79572,
Eastern Cape,Police,Tina Falls,Tina Falls,-31.22086,29.02187,
Eastern Cape,Police,Port St Johns,Port St Johns,-31.62894,29.54424,
Eastern Cape,Police,Joubertina,Joubertina,-33.82652,23.85546,
Eastern Cape,Police,Middelburg(Ec),Middelburg(Ec),-31.49245,25.00611,
Eastern Cape,Police,Mqanduli,Mqanduli,-31.81916,28.76291,
Eastern Cape,Police,Buffalo Flats,Buffalo Flats,-33.02401,27.86027,
Eastern Cape,Police,Adelaide,Adelaide,-32.70725,26.29255,
Eastern Cape,Police,Cookhouse,Cookhouse,-32.75007,25.8005,
Eastern Cape,Police,Somerset East,Somerset East,-32.7182,25.59114,
Eastern Cape,Police,Uitenhage,Uitenhage,-33.76565,25.40085,
Eastern Cape,Police,Zwelitsha,Zwelitsha,-32.91425,27.42121,
Eastern Cape,Police,Butterworth,Butterworth,-32.3292,28.14217,
Eastern Cape,Police,Willowvale,Willowvale,-32.267,28.50661,
Eastern Cape,Police,Seymour,Seymour,-32.55177,26.76792,
Eastern Cape,Police,Mdantsane,Mdantsane,-32.94867,27.77583,
Eastern Cape,Police,Algoapark,Algoapark,-33.90246,25.57071,
Eastern Cape,Police,Nqamakwe,Nqamakwe,-32.20241,27.94282,
Eastern Cape,Police,Mount Frere,Mount Frere,-30.9068,28.99125,
Eastern Cape,Police,Mtontsasa,Mtontsasa,-31.20766,29.7024,
Eastern Cape,Police,Kamesh,Kamesh,-33.75313,25.38562,
Eastern Cape,Police,Thornhill,Thornhill,-33.90226,25.14084,
Eastern Cape,Police,Ugie,Ugie,-31.19953,28.2349,
Eastern Cape,Police,Barkly East,Barkly East,-30.96913,27.59774,
Eastern Cape,Police,Pearston,Pearston,-32.58076,25.13783,
Eastern Cape,Police,Rietbron,Rietbron,-32.90126,23.1522,
Eastern Cape,Police,Cala,Cala,-31.52416,27.69644,
Eastern Cape,Police,Engcobo,Engcobo,-31.67635,27.99961,
Eastern Cape,Police,Dalasile,Dalasile,-31.62187,28.19333,
Eastern Cape,Police,Mount Fletcher,Mount Fletcher,-30.69057,28.50988,
Eastern Cape,Police,Dordrecht,Dordrecht,-31.3794,27.04719,
Eastern Cape,Police,Port Alfred,Port Alfred,-33.59043,26.88904,
Eastern Cape,Police,Rhodes,Rhodes,-30.79379,27.96674,
Eastern Cape,Police,Cambridge,Cambridge,-32.97932,27.89812,
Eastern Cape,Police,Matatiele,Matatiele,-30.34362,28.80508,
Eastern Cape,Police,Klipplaat,Klipplaat,-33.02179,24.33284,
Eastern Cape,Police,Bhisho,Bhisho,-32.85029,27.44085,
Eastern Cape,Police,Ndevana,Ndevana,-32.91955,27.48999,
Eastern Cape,Police,New Brighton,New Brighton,-33.90752,25.5845,
Eastern Cape,Police,Alexandria,Alexandria,-33.65057,26.412,
Eastern Cape,Police,Elliot,Elliot,-31.33022,27.84998,
Eastern Cape,Police,Seafield,Seafield,-33.53064,27.04722,
Eastern Cape,Police,Steytlerville,Steytlerville,-33.32752,24.34185,
Eastern Cape,Police,Glen Grey,Glen Grey,-31.75751,27.0212,
Eastern Cape,Police,Cathcart,Cathcart,-32.29579,27.1411,
Eastern Cape,Police,Tarkastad,Tarkastad,-32.00705,26.25755,
Eastern Cape,Police,Steve Vukile Tshwete,Steve Vukile Tshwete,-32.72903,27.46567,
Eastern Cape,Police,Mount Ayliff,Mount Ayliff,-30.81069,29.36962,
Eastern Cape,Police,Hlababomvu,Hlababomvu,-31.26654,29.36261,
Eastern Cape,Police,Madeira,Madeira,-31.58703,28.78971,
Eastern Cape,Police,Mlungisi,Mlungisi,-31.91098,26.8652555,
Eastern Cape,Police,Venterstad,Venterstad,-30.77378,25.80117,
Eastern Cape,Police,Aberdeen,Aberdeen,-32.47634,24.06098,
Eastern Cape,Police,Committees,Committees,-33.16014,26.83654,
Eastern Cape,Police,Lady Frere,Lady Frere,-31.70148,27.23649,
Eastern Cape,Police,Bolotwa,Bolotwa,-31.9862,27.1992,
Eastern Cape,Police,Baviaanskloof,Baviaanskloof,-33.53938,23.98058,
Eastern Cape,Police,Tamara,Tamara,-32.97844,27.28339,
Eastern Cape,Police,Alice,Alice,-32.79033,26.83583,
Eastern Cape,Police,Middledrift,Middledrift,-32.81951,26.9905,
Eastern Cape,Police,Bolo,Bolo,-32.3882,27.62414,
Eastern Cape,Police,Zele,Zele,-32.77056,27.37591,
Eastern Cape,Police,Keiskammahoek,Keiskammahoek,-32.68017,27.14546,
Eastern Cape,Police,Balfour,Balfour,-32.53628,26.67652,
Eastern Cape,Police,Peddie,Peddie,-33.19855,27.11446,
Eastern Cape,Police,Bell,Bell,-33.24744,27.35953,
Eastern Cape,Police,St Francis Bay,St Francis Bay,-34.16691,24.82673,
Free State,Police,Botshabelo,Botshabelo,-29.2362,26.71606,
Free State,Police,Smithfield,Smithfield,-30.20976,26.53167,
Free State,Police,Ventersburg,Ventersburg,-28.08577,27.13605,
Free State,Police,Theunissen,Theunissen,-28.40042,26.71208,
Free State,Police,Thabong,Thabong,-27.97483,26.78051,
Free State,Police,Heidedal,Heidedal,-29.14242,26.25019,
Free State,Police,Boithuso,Boithuso,-29.25967,26.67399,
Free State,Police,Clocolan,Clocolan,-28.91602,27.56798,
Free State,Police,Zastron,Zastron,-30.30455,27.08167,
Free State,Police,Soutpan,Soutpan,-28.72135,26.06093,
Free State,Police,Wanda,Wanda,-29.60004,24.43268,
Free State,Police,Allanridge,Allanridge,-27.75013,26.64818,
Free State,Police,Roadside,Roadside,-27.51842,28.8493,
Free State,Police,Vrede,Vrede,-27.42321,29.16897,
Free State,Police,Warden,Warden,-27.85385,28.96409,
Free State,Police,Goedemoed,Goedemoed,-30.55924,26.40335,
Free State,Police,Jacobsdal,Jacobsdal,-29.13018,24.77064,
Free State,Police,Jagersfontein,Jagersfontein,-29.76054,25.42291,
Free State,Police,Tumahole,Tumahole,-26.92008,27.48537,
Free State,Police,Meloding,Meloding,-28.13308,26.89475,
Free State,Police,Arlington,Arlington,-28.02889,27.85058,
Free State,Police,Petrus Steyn,Petrus Steyn,-27.64711,28.13161,
Free State,Police,Verkeerdevlei,Verkeerdevlei,-28.83224,26.77901,
Free State,Police,Fouriesburg,Fouriesburg,-28.61588,28.20841,
Free State,Police,Mangaung,Mangaung,-29.15674,26.24956,
Free State,Police,Rouxville,Rouxville,-30.42054,26.83419,
Free State,Police,Excelsior,Excelsior,-28.9382,27.06109,
Free State,Police,Ficksburg,Ficksburg,-28.87051,27.87397,
Free State,Police,Hobhouse,Hobhouse,-29.52845,27.14284,
Free State,Police,Marquard,Marquard,-28.66536,27.4259,
Free State,Police,Senekal,Senekal,-28.3212,27.6226,
Free State,Police,Bethlehem,Bethlehem,-28.23108,28.30889,
Free State,Police,Cornelia,Cornelia,-27.23861,28.85422,
Free State,Police,Kestell,Kestell,-28.31452,28.70516,
Free State,Police,Reitz,Reitz,-27.79927,28.43171,
Free State,Police,Kopanong,Kopanong,-29.18644,26.25326,
Free State,Police,Kagisanong,Kagisanong,-29.18293,26.23517,
Free State,Police,Bainsvlei,Bainsvlei,-29.06613,26.12837,
Free State,Police,Batho,Batho,-29.13468,26.22531,
Free State,Police,Bayswater,Bayswater,-29.08896,26.23033,
Free State,Police,Ladybrand,Ladybrand,-29.19591,27.4568,
Free State,Police,Boshof,Boshof,-28.54034,25.23967,
Free State,Police,Brandfort,Brandfort,-28.7031,26.45913,
Free State,Police,Dealesville,Dealesville,-28.67602,25.76379,
Free State,Police,Dewetsdorp,Dewetsdorp,-29.58358,26.66246,
Free State,Police,Glen,Glen,-28.93999,26.33199,
Free State,Police,Namahadi,Namahadi,-28.58345,28.82841,
Free State,Police,Kommissiepoort,Kommissiepoort,-29.32488,27.28657,
Free State,Police,Wepener,Wepener,-29.73115,27.037,
Free State,Police,Oranjeville,Oranjeville,-26.98908,28.20446,
Free State,Police,Paul Roux,Paul Roux,-28.29686,27.95304,
Free State,Police,Tweespruit,Tweespruit,-29.18634,27.02513,
Free State,Police,Clarens,Clarens,-28.5154,28.41983,
Free State,Police,Mafube,Mafube,-27.26838,28.50321,
Free State,Police,Memel,Memel,-27.68155,29.56703,
Free State,Police,Tweeling,Tweeling,-27.5544,28.51549,
Free State,Police,Bethulie,Bethulie,-30.49887,25.97663,
Free State,Police,Thaba-Nchu,Thaba-Nchu,-29.2112,26.84379,
Free State,Police,Trompsburg,Trompsburg,-30.03372,25.78074,
Free State,Police,Selosesha,Selosesha,-29.19424,26.81939,
Free State,Police,Harrismith,Harrismith,-28.26961,29.12786,
Free State,Police,Tseseng,Tseseng,-28.62038,28.85396,
Free State,Police,Makwane,Makwane,-28.53211,28.88045,
Free State,Police,Phuthaditjhaba,Phuthaditjhaba,-28.51524,28.82656,
Free State,Police,Kroonstad,Kroonstad,-27.66893,27.23468,
Free State,Police,Verkykerskop,Verkykerskop,-27.91964,29.28102,
Free State,Police,Fauresmith,Fauresmith,-29.74649,25.31122,
Free State,Police,Gariepdam,Gariepdam,-30.5913,25.49178,
Free State,Police,Tseki,Tseki,-28.58429,28.77262,
Free State,Police,Edenville,Edenville,-27.55535,27.67408,
Free State,Police,Heilbron,Heilbron,-27.28279,27.96707,
Free State,Police,Rosendal,Rosendal,-28.50406,27.9302,
Free State,Police,Winburg,Winburg,-28.52163,27.0096,
Free State,Police,Welkom,Welkom,-27.97365,26.73691,
Free State,Police,Virginia,Virginia,-28.10392,26.87201,
Free State,Police,Sasolburg,Sasolburg,-26.81351,27.82882,
Free State,Police,Steynsrus,Steynsrus,-27.95346,27.56381,
Free State,Police,Deneysville,Deneysville,-26.88716,28.09493,
Free State,Police,Viljoensdrif,Viljoensdrif,-26.72698,27.92026,
Free State,Police,Vredefort,Vredefort,-27.00656,27.36753,
Free State,Police,Park Road,Park Road,-29.11994,26.21159,
Free State,Police,Edenburg,Edenburg,-29.73567,25.93462,
Free State,Police,Odendaalsrus,Odendaalsrus,-27.87226,26.68751,
Free State,Police,Hertzogville,Hertzogville,-28.13091,25.50616,
Free State,Police,Reddersburg,Reddersburg,-29.65303,26.16737,
Free State,Police,Bronville,Bronville,-27.99683,26.81762,
Free State,Police,Navalsig,Navalsig,-29.10568,26.23765,
Free State,Police,Tierpoort,Tierpoort,-29.44394,26.09008,
Free State,Police,Bloemspruit,Bloemspruit,-29.1395,26.27852,
Free State,Police,Bothaville,Bothaville,-27.38891,26.61423,
Free State,Police,Bultfontein,Bultfontein,-28.29346,26.15286,
Free State,Police,Hoopstad,Hoopstad,-27.83669,25.90546,
Free State,Police,Zamdela,Zamdela,-26.84416,27.85671,
Free State,Police,Villiers,Villiers,-27.02611,28.59953,
Free State,Police,Koppies,Koppies,-27.24265,27.57533,
Free State,Police,Lindley,Lindley,-27.88343,27.92071,
Free State,Police,Parys,Parys,-26.89837,27.4567,
Free State,Police,Koffiefontein,Koffiefontein,-29.40948,25.00308,
Free State,Police,Petrusburg,Petrusburg,-29.11293,25.41366,
Free State,Police,Philippolis,Philippolis,-30.26739,25.27314,
Free State,Police,Steunmekaar,Steunmekaar,-29.49944,25.52628,
Free State,Police,Springfontein,Springfontein,-30.26625,25.70502,
Free State,Police,Maokeng,Maokeng,-27.65223,27.20998,
Free State,Police,Vierfontein,Vierfontein,-27.08004,26.75187,
Free State,Police,Viljoenskroon,Viljoenskroon,-27.20688,26.94658,
Free State,Police,Wesselsbron,Wesselsbron,-27.85679,26.36327,
Free State,Police,Heuningspruit,Heuningspruit,-27.44889,27.42303,
Free State,Police,Van Stadensrus,Van Stadensrus,-29.9874,27.01634,
Free State,Police,Luckhoff,Luckhoff,-29.7515,24.78995,
Free State,Police,Hennenman,Hennenman,-27.97913,27.02748,
Gauteng,Police,Kwa Thema,Kwa Thema,-26.27889,28.39438,
Gauteng,Police,Brakpan,Brakpan,-26.23481,28.36257,
Gauteng,Police,Evaton,Evaton,-26.54172,27.85719,
Gauteng,Police,Katlehong,Katlehong,-26.3619,28.1571,
Gauteng,Police,Hillbrow,Hillbrow,-26.18823,28.04464,
Gauteng,Police,Meadowlands,Meadowlands,-26.22145,27.90026,
Gauteng,Police,Springs,Springs,-26.24489,28.44266,
Gauteng,Police,Mamelodi East,Mamelodi East,-25.71357,28.39609,
Gauteng,Police,De Deur,De Deur,-26.51511,27.91079,
Gauteng,Police,Brooklyn,Brooklyn,-25.7556,28.2377,
Gauteng,Police,Diepsloot,Diepsloot,-25.92322,28.02203,
Gauteng,Police,Wedela,Wedela,-26.4567,27.383,
Gauteng,Police,Orange Farms,Orange Farms,-26.47848,27.8672,
Gauteng,Police,Primrose,Primrose,-26.18914,28.15795,
Gauteng,Police,Alberton,Alberton,-26.26088,28.12692,
Gauteng,Police,Eersterust,Eersterust,-25.70602,28.3189,
Gauteng,Police,Fochville,Fochville,-26.4879,27.49416,
Gauteng,Police,Daveyton,Daveyton,-26.15328,28.4156,
Gauteng,Police,Boschkop,Boschkop,-25.81666,28.40709,
Gauteng,Police,Dawn Park,Dawn Park,-26.315,28.2477,
Gauteng,Police,Tsakane,Tsakane,-26.35194,28.36975,
Gauteng,Police,Eldorado Park,Eldorado Park,-26.29105,27.90082,
Gauteng,Police,Boksburg,Boksburg,-26.22025,28.23787,
Gauteng,Police,Kempton Park,Kempton Park,-26.10141,28.23211,
Gauteng,Police,Tarlton,Tarlton,-26.09221,27.66759,
Gauteng,Police,Ekangala,Ekangala,-25.69136,28.74155,
Gauteng,Police,Rietgat,Rietgat,-25.49786,28.09001,
Gauteng,Police,Akasia,Akasia,-25.62571,28.09538,
Gauteng,Police,Ratanda,Ratanda,-26.55351,28.32785,
Gauteng,Police,Germiston,Germiston,-26.21722,28.16174,
Gauteng,Police,Dunnottar,Dunnottar,-26.35129,28.4388,
Gauteng,Police,Nigel,Nigel,-26.42076,28.47217,
Gauteng,Police,Benoni,Benoni,-26.19655,28.31337,
Gauteng,Police,Kagiso,Kagiso,-26.16425,27.78162,
Gauteng,Police,Magaliesburg,Magaliesburg,-25.99744,27.53867,
Gauteng,Police,Randfontein,Randfontein,-26.18076,27.7062,
Gauteng,Police,Devon,Devon,-26.3563,28.78603,
Gauteng,Police,Soshanguve,Soshanguve,-25.5287,28.1126,
Gauteng,Police,Alexandra,Alexandra,-26.10548,28.10089,
Gauteng,Police,Zonkizizwe,Zonkizizwe,-26.40597,28.17933,
Gauteng,Police,Silverton,Silverton,-25.73355,28.29632,
Gauteng,Police,Bronkhorstspruit,Bronkhorstspruit,-25.80898,28.74566,
Gauteng,Police,Cullinan,Cullinan,-25.67528,28.52028,
Gauteng,Police,Bedfordview,Bedfordview,-26.1796,28.13719,
Gauteng,Police,Bramley,Bramley,-26.12079,28.08413,
Gauteng,Police,Midrand,Midrand,-25.99321,28.12012,
Gauteng,Police,Sandton,Sandton,-26.08026,28.0615,
Gauteng,Police,Linden,Linden,-26.11922,27.9937,
Gauteng,Police,Langlaagte,Langlaagte,-26.20815,27.98447,
Gauteng,Police,Mondeor,Mondeor,-26.27615,28.01003,
Gauteng,Police,Protea Glen,Protea Glen,-26.27697,27.83896,
Gauteng,Police,Mabopane,Mabopane,-25.511,28.0575,
Gauteng,Police,Sunnyside,Sunnyside,-25.75444,28.2077,
Gauteng,Police,Or Tambo Intern Airp,Or Tambo Intern Airp,-26.13293,28.22985,
Gauteng,Police,Wierdabrug,Wierdabrug,-25.82374,28.15524,
Gauteng,Police,Erasmia,Erasmia,-25.81177,28.09258,
Gauteng,Police,Rosebank,Rosebank,-26.14538,28.03842,
Gauteng,Police,Brixton,Brixton,-26.19278,27.99355,
Gauteng,Police,Muldersdrift,Muldersdrift,-26.03846,27.85052,
Gauteng,Police,Lyttelton,Lyttelton,-25.83904,28.19868,
Gauteng,Police,Westonaria,Westonaria,-26.323,27.65058,
Gauteng,Police,Vereeniging,Vereeniging,-26.67931,27.92999,
Gauteng,Police,Vanderbijlpark,Vanderbijlpark,-26.69897,27.83306,
Gauteng,Police,Randburg,Randburg,-26.0765,27.997,
Gauteng,Police,Pretoria Moot,Pretoria Moot,-25.71295,28.21685,
Gauteng,Police,Sharpeville,Sharpeville,-26.68133,27.87801,
Gauteng,Police,Ennerdale,Ennerdale,-26.40392,27.83225,
Gauteng,Police,Actonville,Actonville,-26.21198,28.29975,
Gauteng,Police,Jabulani,Jabulani,-26.2482,27.8583,
Gauteng,Police,Kliptown,Kliptown,-26.28229,27.88838,
Gauteng,Police,Boipatong,Boipatong,-26.66959,27.84344,
Gauteng,Police,Hekpoort,Hekpoort,-25.8961,27.61817,
Gauteng,Police,Dube,Dube,-25.40502,28.02384,
Gauteng,Police,Temba,Temba,-25.38881,28.26037,
Gauteng,Police,Brackendowns,Brackendowns,-26.34619,28.09636,
Gauteng,Police,Heidelberg (Gp),Heidelberg (Gp),-26.49652,28.35413,
Gauteng,Police,Duduza,Duduza,-26.3754,28.4177,
Gauteng,Police,Carletonville,Carletonville,-26.35839,27.39859,
Gauteng,Police,Khutsong,Khutsong,-26.34301,27.33051,
Gauteng,Police,Krugersdorp,Krugersdorp,-26.0994,27.766,
Gauteng,Police,Sandringham,Sandringham,-26.13648,28.11834,
Gauteng,Police,Pretoria West,Pretoria West,-25.74808,28.158,
Gauteng,Police,Sebokeng,Sebokeng,-26.60924,27.84813,
Gauteng,Police,Dobsonville,Dobsonville,-26.2155,27.8704,
Gauteng,Police,Edenvale,Edenvale,-26.14829,28.14885,
Gauteng,Police,Elsburg,Elsburg,-26.24517,28.19877,
Gauteng,Police,Tokoza,Tokoza,-26.32987,28.14338,
Gauteng,Police,Edenpark,Edenpark,-26.3766,28.1281,
Gauteng,Police,Sophia Town,Sophia Town,-26.17733,27.97173,
Gauteng,Police,Diepkloof,Diepkloof,-26.23883,27.94192,
Gauteng,Police,Naledi,Naledi,-26.2545,27.8321,
Gauteng,Police,Sinoville,Sinoville,-25.67601,28.22617,
Gauteng,Police,Atteridgeville,Atteridgeville,-25.77462,28.07173,
Gauteng,Police,Laudium,Laudium,-25.78555,28.09789,
Gauteng,Police,Garsfontein,Garsfontein,-25.78853,28.2891,
Gauteng,Police,Hercules,Hercules,-25.71914,28.1488,
Gauteng,Police,Olifantsfontein,Olifantsfontein,-25.95135,28.23211,
Gauteng,Police,Tembisa,Tembisa,-26.00749,28.22014,
Gauteng,Police,Vosloorus,Vosloorus,-26.3423,28.211,
Gauteng,Police,Lenasia,Lenasia,-26.32228,27.82496,
Gauteng,Police,Ivory Park,Ivory Park,-25.99001,28.20162,
Gauteng,Police,Douglasdale,Douglasdale,-26.0263,27.9907,
Gauteng,Police,Boksburg North,Boksburg North,-26.206,28.25302,
Gauteng,Police,Cleveland,Cleveland,-26.20398,28.11556,
Gauteng,Police,Moroka,Moroka,-26.2681,27.8755,
Gauteng,Police,Welbekend,Welbekend,-25.96476,28.46994,
Gauteng,Police,Mamelodi,Mamelodi,-25.71422,28.34826,
Gauteng,Police,Lenasia South,Lenasia South,-26.39441,27.85891,
Gauteng,Police,Roodepoort,Roodepoort,-26.15501,27.8735,
Gauteng,Police,Honeydew,Honeydew,-26.0732,27.9201,
Gauteng,Police,Florida,Florida,-26.1693,27.9051,
Gauteng,Police,Jhb Central,Jhb Central,-26.20676,28.0311,
Gauteng,Police,Fairland,Fairland,-26.14423,27.9375,
Gauteng,Police,Loate,Loate,-25.4951,28.07368,
Gauteng,Police,Wonderboompoort,Wonderboompoort,-25.70428,28.18587,
Gauteng,Police,Vaal Marina,Vaal Marina,-26.87308,28.2312399,
Gauteng,Police,Bekkersdal,Bekkersdal,-26.287108,27.6987305,
Gauteng,Police,Jeppe,Jeppe,-26.20225,28.06046,
Gauteng,Police,Booysens,Booysens,-26.23361,28.02202,
Gauteng,Police,Norkempark,Norkempark,-26.05456,28.22334,
Gauteng,Police,Katlehong North,Katlehong North,-26.314697,28.1567666,
Gauteng,Police,Pretoria Central,Pretoria Central,-25.74846,28.18472,
Gauteng,Police,Orlando,Orlando,-26.23877,27.91915,
Gauteng,Police,Hammanskraal,Hammanskraal,-25.40479,28.27506,
Gauteng,Police,Kameeldrift,Kameeldrift,-25.65062,28.30718,
Gauteng,Police,Pretoria North,Pretoria North,-25.67133,28.174,
Gauteng,Police,Crystalpark,Crystalpark,-26.12412,28.37297,
Gauteng,Police,Putfontein,Putfontein,-26.10332,28.41908,
Gauteng,Police,Etwatwa,Etwatwa,-26.11999,28.4642,
Gauteng,Police,Rabie Ridge,Rabie Ridge,-26.0206,28.17065,
Gauteng,Police,Norwood,Norwood,-26.1612,28.07833,
Gauteng,Police,Parkview,Parkview,-26.15951,28.02657,
Gauteng,Police,Yeoville,Yeoville,-26.1829,28.06281,
Gauteng,Police,Moffatview,Moffatview,-26.24153,28.088771,
Gauteng,Police,Olievenhoutbosch,Olievenhoutbosch,-25.9176,28.0955,
Gauteng,Police,Meyerton,Meyerton,-26.55567,28.01492,
Gauteng,Police,Kliprivier,Kliprivier,-26.42027,28.08452,
Gauteng,Police,The Barrage,The Barrage,-26.76453,27.6795,
Gauteng,Police,Tembisa South,Tembisa South,-26.025975,28.208876,
Gauteng,Police,Villieria,Villieria,-25.718203,28.245436,
Gauteng,Police,Sebenza,Sebenza,-26.1325,28.1819,
Gauteng,Police,Reigerpark,Reigerpark,-26.22976,28.22545,
Gauteng,Police,Ga-Rankuwa,Ga-Rankuwa,-25.59973,27.99901,
Kwazulu-Natal,Police,Swartberg,Swartberg,-30.24156,29.33874,
Kwazulu-Natal,Police,Verulam,Verulam,-29.64474,31.04136,
Kwazulu-Natal,Police,Magudu,Magudu,-27.54544,31.64838,
Kwazulu-Natal,Police,Bhekithemba,Bhekithemba,-29.97721,30.86016,
Kwazulu-Natal,Police,Wasbank,Wasbank,-28.31341,30.10001,
Kwazulu-Natal,Police,Eshowe,Eshowe,-28.90237,31.45689,
Kwazulu-Natal,Police,Gingindlovu,Gingindlovu,-29.02791,31.58145,
Kwazulu-Natal,Police,Kwambonambi,Kwambonambi,-28.5988,32.0859,
Kwazulu-Natal,Police,Nyoni,Nyoni,-29.07975,31.46301,
Kwazulu-Natal,Police,Babanango,Babanango,-28.37593,31.08263,
Kwazulu-Natal,Police,Melmoth,Melmoth,-28.59162,31.39876,
Kwazulu-Natal,Police,Richmond-Kzn,Richmond-Kzn,-29.87238,30.26986,
Kwazulu-Natal,Police,Wartburg,Wartburg,-29.4337,30.5768,
Kwazulu-Natal,Police,Kwamashu E,Kwamashu E,-29.73592,31.00027,
Kwazulu-Natal,Police,Groenvlei,Groenvlei,-27.4621,30.23121,
Kwazulu-Natal,Police,Evatt,Evatt,-30.03691,29.35065,
Kwazulu-Natal,Police,Intsikeni,Intsikeni,-30.13768,29.58809,
Kwazulu-Natal,Police,Ixopo,Ixopo,-30.1548,30.06021,
Kwazulu-Natal,Police,St Faiths,St Faiths,-30.52934,30.20243,
Kwazulu-Natal,Police,Osizweni,Osizweni,-27.79043,30.12937,
Kwazulu-Natal,Police,Wentworth,Wentworth,-29.94177,30.98088,
Kwazulu-Natal,Police,Ladysmith,Ladysmith,-28.56124,29.77862,
Kwazulu-Natal,Police,Amangwe,Amangwe,-28.94127,29.61758,
Kwazulu-Natal,Police,Besters,Besters,-28.43673,29.64116,
Kwazulu-Natal,Police,Ezakheni,Ezakheni,-28.59515,29.9278,
Kwazulu-Natal,Police,Richards Bay,Richards Bay,-28.74824,32.05469,
Kwazulu-Natal,Police,Nquthu,Nquthu,-28.21219,30.67726,
Kwazulu-Natal,Police,Nkandla,Nkandla,-28.62028,31.09171,
Kwazulu-Natal,Police,Mpungamhlophe,Mpungamhlophe,-28.27376,31.25359,
Kwazulu-Natal,Police,Phoenix,Phoenix,-29.70143,31.00799,
Kwazulu-Natal,Police,Kwamakhutha,Kwamakhutha,-30.0253,30.86804,
Kwazulu-Natal,Police,Kwandengezi,Kwandengezi,-29.85093,30.76895,
Kwazulu-Natal,Police,Wembezi,Wembezi,-29.04502,29.78917,
Kwazulu-Natal,Police,Newlands East,Newlands East,-29.78514,30.97478,
Kwazulu-Natal,Police,Ibisi,Ibisi,-30.40506,29.88793,
Kwazulu-Natal,Police,Himeville,Himeville,-29.75237,29.51173,
Kwazulu-Natal,Police,Newcastle,Newcastle,-27.76069,29.93826,
Kwazulu-Natal,Police,Mtubatuba,Mtubatuba,-28.41957,32.18481,
Kwazulu-Natal,Police,New Hanover,New Hanover,-29.35433,30.52769,
Kwazulu-Natal,Police,Umbilo,Umbilo,-29.87218,30.99136,
Kwazulu-Natal,Police,Weenen,Weenen,-28.85307,30.08461,
Kwazulu-Natal,Police,Isipingo,Isipingo,-29.98666,30.92521,
Kwazulu-Natal,Police,Hlobane,Hlobane,-27.73717,31.00971,
Kwazulu-Natal,Police,Kingsley,Kingsley,-27.93065,30.53045,
Kwazulu-Natal,Police,Bellair,Bellair,-29.88968,30.94137,
Kwazulu-Natal,Police,Pietermaritzburg,Pietermaritzburg,-29.60476,30.37979,
Kwazulu-Natal,Police,Mid Illovo,Mid Illovo,-29.96608,30.51511,
Kwazulu-Natal,Police,Alexandra Road,Alexandra Road,-29.61901,30.38773,
Kwazulu-Natal,Police,Bishopstowe,Bishopstowe,-29.58422,30.47682,
Kwazulu-Natal,Police,Boston,Boston,-29.68509,30.04722,
Kwazulu-Natal,Police,Camperdown,Camperdown,-29.72907,30.54127,
Kwazulu-Natal,Police,Sawoti,Sawoti,-30.27408,30.49026,
Kwazulu-Natal,Police,Scottburgh,Scottburgh,-30.28763,30.75576,
Kwazulu-Natal,Police,Southport,Southport,-30.66458,30.50909,
Kwazulu-Natal,Police,Umkomaas,Umkomaas,-30.20719,30.79157,
Kwazulu-Natal,Police,Hibberdene,Hibberdene,-30.57774,30.57051,
Kwazulu-Natal,Police,Gamalakhe,Gamalakhe,-30.79986,30.34167,
Kwazulu-Natal,Police,Chatsworth,Chatsworth,-29.91231,30.88538,
Kwazulu-Natal,Police,Cato Manor,Cato Manor,-29.86012,30.968,
Kwazulu-Natal,Police,Bayview,Bayview,-29.92278,30.9117,
Kwazulu-Natal,Police,Ndwedwe,Ndwedwe,-29.51506,30.93596,
Kwazulu-Natal,Police,Rietvlei,Rietvlei,-29.17992,30.34741,
Kwazulu-Natal,Police,Int Airp King Shaka,Int Airp King Shaka,-29.61844,31.10425,
Kwazulu-Natal,Police,Ntambanana,Ntambanana,-28.60502,31.74294,
Kwazulu-Natal,Police,Montclair,Montclair,-29.91872,30.97392,
Kwazulu-Natal,Police,Gluckstadt,Gluckstadt,-27.97561,31.0321,
Kwazulu-Natal,Police,Sundumbili,Sundumbili,-29.13495,31.40266,
Kwazulu-Natal,Police,Bulwer,Bulwer,-29.8118,29.76945,
Kwazulu-Natal,Police,Ceza,Ceza,-27.99503,31.37832,
Kwazulu-Natal,Police,Highflats,Highflats,-30.25922,30.19238,
Kwazulu-Natal,Police,Brighton Beach,Brighton Beach,-29.93649,31.00619,
Kwazulu-Natal,Police,Gowan Lea,Gowan Lea,-30.34742,29.70266,
Kwazulu-Natal,Police,Prestbury,Prestbury,-29.60667,30.33822,
Kwazulu-Natal,Police,Dalton,Dalton,-29.34421,30.63626,
Kwazulu-Natal,Police,Ematimatolo,Ematimatolo,-29.14101,30.82659,
Kwazulu-Natal,Police,Kranskop,Kranskop,-28.96604,30.86405,
Kwazulu-Natal,Police,Mtunzini,Mtunzini,-28.95414,31.75453,
Kwazulu-Natal,Police,Empangeni,Empangeni,-28.74586,31.88623,
Kwazulu-Natal,Police,Charlestown,Charlestown,-27.41557,29.87355,
Kwazulu-Natal,Police,Ingogo,Ingogo,-27.57737,29.91188,
Kwazulu-Natal,Police,Creighton,Creighton,-30.02955,29.84284,
Kwazulu-Natal,Police,Umlazi,Umlazi,-29.96252,30.92848,
Kwazulu-Natal,Police,Emanguzi,Emanguzi,-26.99803,32.74348,
Kwazulu-Natal,Police,Louwsburg,Louwsburg,-27.58069,31.28124,
Kwazulu-Natal,Police,Dundee,Dundee,-28.16235,30.23368,
Kwazulu-Natal,Police,Hattingspruit,Hattingspruit,-28.0792,30.124,
Kwazulu-Natal,Police,Vryheid,Vryheid,-27.76738,30.79561,
Kwazulu-Natal,Police,Jozini,Jozini,-27.42715,32.06406,
Kwazulu-Natal,Police,Paulpietersburg,Paulpietersburg,-27.42332,30.81722,
Kwazulu-Natal,Police,Lamontville,Lamontville,-29.94046,30.93923,
Kwazulu-Natal,Police,Hillcrest,Hillcrest,-29.78427,30.76489,
Kwazulu-Natal,Police,Malvern,Malvern,-29.87456,30.91017,
Kwazulu-Natal,Police,Ulundi,Ulundi,-28.2959,31.42827,
Kwazulu-Natal,Police,Point,Point,-29.86189,31.03983,
Kwazulu-Natal,Police,Mbazwana,Mbazwana,-27.48081,32.59923,
Kwazulu-Natal,Police,Mandeni,Mandeni,-29.15479,31.41142,
Kwazulu-Natal,Police,Taylors Halt,Taylors Halt,-29.68305,30.19095,
Kwazulu-Natal,Police,Harburg,Harburg,-29.41241,30.7378,
Kwazulu-Natal,Police,Ngome,Ngome,-27.83284,31.38986,
Kwazulu-Natal,Police,Estcourt,Estcourt,-29.00566,29.87219,
Kwazulu-Natal,Police,Ndumo,Ndumo,-26.9201,32.26491,
Kwazulu-Natal,Police,Berea,Berea,-29.84813,31.00409,
Kwazulu-Natal,Police,Margate,Margate,-30.86359,30.36415,
Kwazulu-Natal,Police,Van Reenen,Van Reenen,-28.37872,29.38561,
Kwazulu-Natal,Police,Westville,Westville,-29.82968,30.93246,
Kwazulu-Natal,Police,Esikhawini,Esikhawini,-28.87487,31.90505,
Kwazulu-Natal,Police,Donnybrook,Donnybrook,-29.92982,29.87938,
Kwazulu-Natal,Police,Ntabamhlophe,Ntabamhlophe,-29.10312,29.6086,
Kwazulu-Natal,Police,Inanda,Inanda,-29.6968,30.93351,
Kwazulu-Natal,Police,Glendale,Glendale,-29.32763,31.11037,
Kwazulu-Natal,Police,Mkhuze,Mkhuze,-27.62258,32.03108,
Kwazulu-Natal,Police,Normandien,Normandien,-27.98656,29.78067,
Kwazulu-Natal,Police,Harding,Harding,-30.57499,29.88243,
Kwazulu-Natal,Police,Msinsini,Msinsini,-30.49365,30.51874,
Kwazulu-Natal,Police,Umzimkhulu,Umzimkhulu,-30.26423,29.93638,
Kwazulu-Natal,Police,Mbongolwane,Mbongolwane,-28.93937,31.20316,
Kwazulu-Natal,Police,Hlabisa,Hlabisa,-28.14037,31.85714,
Kwazulu-Natal,Police,Umbumbulu,Umbumbulu,-29.99128,30.70896,
Kwazulu-Natal,Police,Cramond,Cramond,-29.41448,30.42808,
Kwazulu-Natal,Police,Hilton-Kzn,Hilton-Kzn,-29.56531,30.29617,
Kwazulu-Natal,Police,Impendle,Impendle,-29.6006,29.86545,
Kwazulu-Natal,Police,Mountain Rise,Mountain Rise,-29.5818,30.40203,
Kwazulu-Natal,Police,Plessislaer,Plessislaer,-29.64513,30.33879,
Kwazulu-Natal,Police,Paddock,Paddock,-30.7586,30.2498,
Kwazulu-Natal,Police,Inchanga,Inchanga,-29.74268,30.67873,
Kwazulu-Natal,Police,Umhlali,Umhlali,-29.46864,31.21969,
Kwazulu-Natal,Police,Utrecht,Utrecht,-27.65619,30.31941,
Kwazulu-Natal,Police,Maydon Wharf,Maydon Wharf,-29.8783,31.00228,
Kwazulu-Natal,Police,Amanzimtoti,Amanzimtoti,-30.05182,30.88011,
Kwazulu-Natal,Police,Newark,Newark,-29.19994,31.4125,
Kwazulu-Natal,Police,Dududu,Dududu,-30.19282,30.61743,
Kwazulu-Natal,Police,Durban Central,Durban Central,-29.84229,31.02748,
Kwazulu-Natal,Police,Glencoe,Glencoe,-28.17932,30.15452,
Kwazulu-Natal,Police,Greytown,Greytown,-29.05913,30.59429,
Kwazulu-Natal,Police,Mpophomeni,Mpophomeni,-29.56264,30.18046,
Kwazulu-Natal,Police,Umsunduzi,Umsunduzi,-29.6644,30.63848,
Kwazulu-Natal,Police,Bergville,Bergville,-28.73144,29.35523,
Kwazulu-Natal,Police,Colenso,Colenso,-28.73492,29.82205,
Kwazulu-Natal,Police,Kokstad,Kokstad,-30.55093,29.42536,
Kwazulu-Natal,Police,Franklin,Franklin,-30.3176,29.45103,
Kwazulu-Natal,Police,Folweni,Folweni,-29.99068,30.81185,
Kwazulu-Natal,Police,Mayville-Kzn,Mayville-Kzn,-29.85207,30.98406,
Kwazulu-Natal,Police,Pinetown,Pinetown,-29.81797,30.87201,
Kwazulu-Natal,Police,Kwadabeka,Kwadabeka,-29.77619,30.89295,
Kwazulu-Natal,Police,Mariannhill,Mariannhill,-29.86286,30.8353,
Kwazulu-Natal,Police,Port Shepstone,Port Shepstone,-30.73368,30.4489,
Kwazulu-Natal,Police,Ezinqoleni,Ezinqoleni,-30.78476,30.12799,
Kwazulu-Natal,Police,Mehlomnyama,Mehlomnyama,-30.58681,30.32273,
Kwazulu-Natal,Police,Port Edward,Port Edward,-31.05239,30.21723,
Kwazulu-Natal,Police,Thornville,Thornville,-29.73621,30.38723,
Kwazulu-Natal,Police,Pongola,Pongola,-27.37626,31.61623,
Kwazulu-Natal,Police,Maphumulo,Maphumulo,-29.15989,31.06624,
Kwazulu-Natal,Police,Nsuze,Nsuze,-29.37678,30.94349,
Kwazulu-Natal,Police,Nhlanhleni,Nhlanhleni,-28.55147,30.42224,
Kwazulu-Natal,Police,Kwamsane,Kwamsane,-28.42857,32.1479,
Kwazulu-Natal,Police,Ekombe,Ekombe,-28.64461,30.8973,
Kwazulu-Natal,Police,Madadeni,Madadeni,-27.762,30.02664,
Kwazulu-Natal,Police,Mondlo,Mondlo,-27.97384,30.69569,
Kwazulu-Natal,Police,Nongoma,Nongoma,-27.89904,31.64726,
Kwazulu-Natal,Police,Mahlabathini,Mahlabathini,-28.2339,31.46908,
Kwazulu-Natal,Police,Ezibayeni,Ezibayeni,-27.99895,32.06748,
Kwazulu-Natal,Police,Ntuzuma,Ntuzuma,-29.7344,30.95097,
Kwazulu-Natal,Police,Town Hill,Town Hill,-29.58544,30.35122,
Kwazulu-Natal,Police,Umzinto,Umzinto,-30.30925,30.67228,
Kwazulu-Natal,Police,Msinga,Msinga,-28.74896,30.44199,
Kwazulu-Natal,Police,Ingwavuma,Ingwavuma,-27.13361,31.9975,
Kwazulu-Natal,Police,Nondweni,Nondweni,-28.19908,30.80476,
Kwazulu-Natal,Police,Dannhauser,Dannhauser,-28.01441,30.05658,
Kwazulu-Natal,Police,Helpmekaar,Helpmekaar,-28.44667,30.41937,
Kwazulu-Natal,Police,Ekuvukeni,Ekuvukeni,-28.4618,30.15365,
Kwazulu-Natal,Police,Hluhluwe,Hluhluwe,-28.02034,32.26855,
Kwazulu-Natal,Police,Durban North,Durban North,-29.77732,31.04827,
Kwazulu-Natal,Police,Greenwood Park,Greenwood Park,-29.78553,31.02431,
Kwazulu-Natal,Police,Kwadukuza,Kwadukuza,-29.34719,31.2843,
Kwazulu-Natal,Police,Howick,Howick,-29.4885,30.22997,
Kwazulu-Natal,Police,Nottingham Road,Nottingham Road,-29.35132,29.99044,
Kwazulu-Natal,Police,Muden,Muden,-28.97467,30.36748,
Kwazulu-Natal,Police,Elandslaagte,Elandslaagte,-28.40129,29.9588,
Kwazulu-Natal,Police,Mooi River,Mooi River,-29.21221,29.99216,
Kwazulu-Natal,Police,Ematsheni,Ematsheni,-28.69808,29.1555,
Kwazulu-Natal,Police,Upper Tugela,Upper Tugela,-28.81018,29.15404,
Kwazulu-Natal,Police,Winterton,Winterton,-28.81443,29.54016,
Kwazulu-Natal,Police,Tongaat,Tongaat,-29.5731,31.11518,
Kwazulu-Natal,Police,Sydenham,Sydenham,-29.83128,30.97629,
Limpopo,Police,Laersdrift,Laersdrift,-25.36766,29.85622,
Limpopo,Police,Marble Hall,Marble Hall,-24.96968,29.29687,
Limpopo,Police,Seshego,Seshego,-23.85429,29.38227,
Limpopo,Police,Mankweng,Mankweng,-23.88506,29.72669,
Limpopo,Police,Lulekani,Lulekani,-23.86649,31.08104,
Limpopo,Police,Hlanganani,Hlanganani,-23.30664,30.29724,
Limpopo,Police,Tshamutumbu,Tshamutumbu,-22.38491,30.54586,
Limpopo,Police,Mphephu,Mphephu,-22.8985,30.03913,
Limpopo,Police,Tshaulu,Tshaulu,-22.80382,30.74773,
Limpopo,Police,Mogwadi,Mogwadi,-23.36789,29.32768,
Limpopo,Police,Botlokwa,Botlokwa,-23.49214,29.73967,
Limpopo,Police,Rust De Winter,Rust De Winter,-25.20296,28.60761,
Limpopo,Police,Modimolle,Modimolle,-24.70692,28.40881,
Limpopo,Police,Naboomspruit,Naboomspruit,-24.51843,28.71265,
Limpopo,Police,Dorset,Dorset,-24.06064,28.16096,
Limpopo,Police,Pienaarsrivier,Pienaarsrivier,-25.20246,28.2964,
Limpopo,Police,Roedtan,Roedtan,-24.59628,29.08164,
Limpopo,Police,Rooiberg,Rooiberg,-24.77912,27.73079,
Limpopo,Police,Tuinplaas,Tuinplaas,-24.90246,28.73605,
Limpopo,Police,Burgersfort,Burgersfort,-24.67925,30.32999,
Limpopo,Police,Mutale,Mutale,-22.73445,30.52317,
Limpopo,Police,Villa Nora,Villa Nora,-23.52831,28.12587,
Limpopo,Police,Dennilton,Dennilton,-25.25865,29.14743,
Limpopo,Police,Ohrigstad,Ohrigstad,-24.75191,30.55652,
Limpopo,Police,Dwaalboom,Dwaalboom,-24.72708,26.80808,
Limpopo,Police,Lebowakgomo,Lebowakgomo,-24.32098,29.48187,
Limpopo,Police,Elandskraal,Elandskraal,-24.71591,29.41198,
Limpopo,Police,Mecklenburg,Mecklenburg,-24.38627,30.07359,
Limpopo,Police,Thabazimbi,Thabazimbi,-24.59703,27.40775,
Limpopo,Police,Northam,Northam,-24.9599,27.26438,
Limpopo,Police,Tshitale,Tshitale,-23.35999,29.98902,
Limpopo,Police,Magatle,Magatle,-24.45995,29.41087,
Limpopo,Police,Nebo,Nebo,-24.86798,29.75343,
Limpopo,Police,Hlogotlou,Hlogotlou,-25.02105,29.73837,
Limpopo,Police,Apel,Apel,-24.42233,29.78591,
Limpopo,Police,Letsitele,Letsitele,-23.89402,30.39214,
Limpopo,Police,Phalaborwa,Phalaborwa,-23.95261,31.13608,
Limpopo,Police,Vaalwater,Vaalwater,-24.2936,28.11371,
Limpopo,Police,Masisi,Masisi,-22.42221,30.86261,
Limpopo,Police,Malamulele,Malamulele,-23.00452,30.68665,
Limpopo,Police,Siloam,Siloam,-22.89731,30.18623,
Limpopo,Police,Groblersdal,Groblersdal,-25.16553,29.3896,
Limpopo,Police,Mara,Mara,-23.0909,29.39279,
Limpopo,Police,Bela-Bela,Bela-Bela,-24.87751,28.29453,
Limpopo,Police,Modjadjiskloof,Modjadjiskloof,-23.69563,30.14385,
Limpopo,Police,Gravelotte,Gravelotte,-23.95146,30.61256,
Limpopo,Police,Thohoyandou,Thohoyandou,-22.97234,30.45594,
Limpopo,Police,Rankin'S Pass,Rankin'S Pass,-24.52865,27.9136,
Limpopo,Police,Namakgale,Namakgale,-23.933,31.02834,
Limpopo,Police,Makuya,Makuya,-22.65248,30.82752,
Limpopo,Police,Sebayeng,Sebayeng,-23.781327,29.6929333,
Limpopo,Police,Hoedspruit,Hoedspruit,-24.35383,30.95114,
Limpopo,Police,Tshilwavhusiku,Tshilwavhusiku,-23.09599,29.74204,
Limpopo,Police,Leboeng,Leboeng,-24.509,30.64776,
Limpopo,Police,Malipsdrift,Malipsdrift,-24.23447,29.82122,
Limpopo,Police,Vuwani,Vuwani,-23.12982,30.4208,
Limpopo,Police,Sekgosese,Sekgosese,-23.41238,30.15034,
Limpopo,Police,Maake,Maake,-23.9731,30.27092,
Limpopo,Police,Mokopane,Mokopane,-24.18398,29.01583,
Limpopo,Police,Hoopdal,Hoopdal,-24.27923,27.49232,
Limpopo,Police,Cumberland,Cumberland,-23.976,26.91968,
Limpopo,Police,Lephalale,Lephalale,-23.67856,27.73479,
Limpopo,Police,Bulgerivier,Bulgerivier,-24.12651,27.69389,
Limpopo,Police,Tom Burke,Tom Burke,-23.0688,27.99936,
Limpopo,Police,Giyani,Giyani,-23.31353,30.71573,
Limpopo,Police,Waterval,Waterval,-23.16397,30.07076,
Limpopo,Police,Ritavi,Ritavi,-23.88811,30.28361,
Limpopo,Police,Saselamani,Saselamani,-22.83111,30.85767,
Limpopo,Police,Polokwane,Polokwane,-23.91312,29.45481,
Limpopo,Police,Tinmyne,Tinmyne,-24.03597,28.77543,
Limpopo,Police,Tolwe,Tolwe,-22.98531,28.57513,
Limpopo,Police,Bolobedu,Bolobedu,-23.64412,30.22274,
Limpopo,Police,Mashashane,Mashashane,-23.896389,29.134318,
Limpopo,Police,Morebeng,Morebeng,-23.49402,29.92797,
Limpopo,Police,Westenburg,Westenburg,-23.904444,29.4301222,
Limpopo,Police,Masemola,Masemola,-24.56753,29.66673,
Limpopo,Police,Waterpoort,Waterpoort,-22.90039,29.62656,
Limpopo,Police,Alldays,Alldays,-22.68226,29.10417,
Limpopo,Police,Levubu,Levubu,-23.09234,30.2754,
Limpopo,Police,Makhado,Makhado,-23.03789,29.90773,
Limpopo,Police,Musina,Musina,-22.34331,30.04396,
Limpopo,Police,Matlala,Matlala,-23.67413,29.0315,
Limpopo,Police,Senwabarwana,Senwabarwana,-23.28572,29.13931,
Limpopo,Police,Maleboho,Maleboho,-22.89844,28.83183,
Limpopo,Police,Mahwelereng,Mahwelereng,-24.15543,28.98329,
Limpopo,Police,Gilead,Gilead,-23.48766,28.65649,
Limpopo,Police,Witpoort,Witpoort,-23.33168,28.00687,
Limpopo,Police,Jane Furse,Jane Furse,-24.765,29.85281,
Limpopo,Police,Zebediela,Zebediela,-24.29829,29.24406,
Limpopo,Police,Saamboubrug,Saamboubrug,-22.56206,28.58481,
Limpopo,Police,Tzaneen,Tzaneen,-23.82788,30.16194,
Limpopo,Police,Haenertsburg,Haenertsburg,-23.94073,29.9405,
Limpopo,Police,Roossenekal,Roossenekal,-25.19819,29.92706,
Limpopo,Police,Zaaiplaas,Zaaiplaas,-25.16611,29.75124,
Limpopo,Police,Motetema,Motetema,-25.0989,29.4644,
Limpopo,Police,Sekhukhune,Sekhukhune,-24.75217,30.0156,
Limpopo,Police,Tubatse,Tubatse,-24.58143,30.32297,
Mpumalanga,Police,Hendrina,Hendrina,-26.16052,29.71433,
Mpumalanga,Police,Waterval Boven,Waterval Boven,-25.64433,30.32545,
Mpumalanga,Police,Perdekop,Perdekop,-27.16835,29.62148,
Mpumalanga,Police,Sundra,Sundra,-26.18637,28.55062,
Mpumalanga,Police,Pienaar,Pienaar,-25.43437,31.1846,
Mpumalanga,Police,Dullstroom,Dullstroom,-25.41676,30.10594,
Mpumalanga,Police,Leslie,Leslie,-26.36964,28.92186,
Mpumalanga,Police,Bethal,Bethal,-26.46098,29.46955,
Mpumalanga,Police,Kriel,Kriel,-26.25064,29.26061,
Mpumalanga,Police,Hazyview,Hazyview,-25.04701,31.1283,
Mpumalanga,Police,Malelane,Malelane,-25.49436,31.51072,
Mpumalanga,Police,Matsulu,Matsulu,-25.51513,31.34609,
Mpumalanga,Police,Mayflower,Mayflower,-26.30353,30.77622,
Mpumalanga,Police,Machadodorp,Machadodorp,-25.66843,30.25328,
Mpumalanga,Police,Graskop,Graskop,-24.93494,30.83923,
Mpumalanga,Police,Masoyi,Masoyi,-25.16354,31.11541,
Mpumalanga,Police,Lydenburg,Lydenburg,-25.0964,30.45298,
Mpumalanga,Police,Middelburg Mpumalang,Middelburg Mpumalang,-25.76254,29.45876,
Mpumalanga,Police,Hartebeeskop,Hartebeeskop,-26.18032,30.93031,
Mpumalanga,Police,Verena,Verena,-25.48245,29.02751,
Mpumalanga,Police,Greylingstad,Greylingstad,-26.74201,28.76545,
Mpumalanga,Police,Embalenhle,Embalenhle,-26.54492,29.0747,
Mpumalanga,Police,Schoemansdal,Schoemansdal,-25.68235,31.49894,
Mpumalanga,Police,Dirkiesdorp,Dirkiesdorp,-27.17452,30.40569,
Mpumalanga,Police,Trichardt,Trichardt,-26.4936,29.22408,
Mpumalanga,Police,Balfour Tvl,Balfour Tvl,-26.66282,28.58695,
Mpumalanga,Police,Kinross,Kinross,-26.4154,29.08508,
Mpumalanga,Police,Carolina,Carolina,-26.07128,30.11998,
Mpumalanga,Police,Sabie,Sabie,-25.09528,30.78207,
Mpumalanga,Police,Blinkpan,Blinkpan,-26.09934,29.45108,
Mpumalanga,Police,Maartenshoop,Maartenshoop,-24.99079,30.234,
Mpumalanga,Police,Ogies,Ogies,-26.05064,29.05272,
Mpumalanga,Police,Witbank,Witbank,-25.88794,29.23129,
Mpumalanga,Police,Mbuzini,Mbuzini,-25.82101,31.89291,
Mpumalanga,Police,Komatipoort,Komatipoort,-25.4362,31.95774,
Mpumalanga,Police,Barberton,Barberton,-25.79074,31.05178,
Mpumalanga,Police,Kabokweni,Kabokweni,-25.34439,31.12938,
Mpumalanga,Police,Hammarsdale,Hammarsdale,-29.7957,30.65611,
Mpumalanga,Police,Wakkerstroom,Wakkerstroom,-27.35712,30.1484,
Mpumalanga,Police,Mmametlake,Mmametlake,-25.10504,28.5431,
Mpumalanga,Police,Standerton,Standerton,-26.94646,29.24147,
Mpumalanga,Police,Delmas,Delmas,-26.14512,28.68756,
Mpumalanga,Police,Belfast,Belfast,-25.70144,30.04588,
Mpumalanga,Police,Kwamhlanga,Kwamhlanga,-25.43404,28.71577,
Mpumalanga,Police,Emzinoni,Emzinoni,-26.48456,29.44593,
Mpumalanga,Police,Amersfoort,Amersfoort,-27.00869,29.87218,
Mpumalanga,Police,Breyten,Breyten,-26.30226,29.98664,
Mpumalanga,Police,Chrissiesmeer,Chrissiesmeer,-26.28052,30.21357,
Mpumalanga,Police,Evander,Evander,-26.47065,29.10759,
Mpumalanga,Police,Mpumalanga Kzn,Mpumalanga Kzn,-29.81428,30.63633,
Mpumalanga,Police,Val,Val,-26.79825,28.94027,
Mpumalanga,Police,Calcutta,Calcutta,-24.98705,31.24385,
Mpumalanga,Police,Elukwatini,Elukwatini,-26.06088,30.78716,
Mpumalanga,Police,Kanyamazane,Kanyamazane,-25.46503,31.18394,
Mpumalanga,Police,Tweefontein,Tweefontein,-25.40626,28.80638,
Mpumalanga,Police,Kwaggafontein,Kwaggafontein,-25.30942,28.94768,
Mpumalanga,Police,Dientjie,Dientjie,-24.61384,30.80467,
Mpumalanga,Police,Ngodwana,Ngodwana,-25.5708,30.67429,
Mpumalanga,Police,Mhala,Mhala,-24.72574,31.20416,
Mpumalanga,Police,Skukuza,Skukuza,-24.99523,31.59017,
Mpumalanga,Police,Low'S Creek,Low'S Creek,-25.64453,31.29337,
Mpumalanga,Police,Witrivier,Witrivier,-25.3283,31.0179,
Mpumalanga,Police,Kaapmuiden,Kaapmuiden,-25.53614,31.34071,
Mpumalanga,Police,Vaalbank,Vaalbank,-25.15941,28.85709,
Mpumalanga,Police,Morgenzon Transvaal,Morgenzon Transvaal,-26.73369,29.61297,
Mpumalanga,Police,Piet Retief,Piet Retief,-27.00637,30.80584,
Mpumalanga,Police,Sheepmoor,Sheepmoor,-26.71503,30.29458,
Mpumalanga,Police,Volksrust,Volksrust,-27.374,29.88684,
Mpumalanga,Police,Sakhile,Sakhile,-26.96305,29.22101,
Mpumalanga,Police,Grootvlei,Grootvlei,-26.79878,28.50955,
Mpumalanga,Police,Tonga,Tonga,-25.6883,31.78474,
Mpumalanga,Police,Ekulindeni,Ekulindeni,-26.0496,31.01682,
Mpumalanga,Police,Vosman,Vosman,-25.86707,29.12743,
Mpumalanga,Police,Nelspruit,Nelspruit,-25.46928,30.9792,
Mpumalanga,Police,Ermelo,Ermelo,-26.52267,29.98454,
Mpumalanga,Police,Amsterdam,Amsterdam,-26.62306,30.66041,
Mpumalanga,Police,Badplaas,Badplaas,-25.95836,30.56857,
Mpumalanga,Police,Fernie,Fernie,-26.41759,30.7737,
Mpumalanga,Police,Secunda,Secunda,-26.50187,29.18622,
Mpumalanga,Police,Acornhoek,Acornhoek,-24.5971,31.04835,
Mpumalanga,Police,Bushbuckridge,Bushbuckridge,-24.8423,31.06821,
Mpumalanga,Police,Mhluzi,Mhluzi,-25.75075,29.4488,
Mpumalanga,Police,Pilgrim'S Rest,Pilgrim'S Rest,-24.90998,30.7564,
Mpumalanga,Police,Charl Cilliers,Charl Cilliers,-26.65976,29.1875,
Mpumalanga,Police,Siyabuswa,Siyabuswa,-25.11259,29.05024,
Mpumalanga,Police,Davel,Davel,-26.4479,29.66766,
Mpumalanga,Police,Lothair,Lothair,-26.39072,30.44033,
Mpumalanga,Police,Mahamba,Mahamba,-27.10484,31.0679,
North West,Police,Mmakau,Mmakau,-25.6174,27.94101,
North West,Police,Vryburg,Vryburg,-26.95942,24.72628,
North West,Police,Swartruggens,Swartruggens,-25.6489,26.68895,
North West,Police,Zeerust,Zeerust,-25.53974,26.07897,
North West,Police,Mmabatho,Mmabatho,-25.8383,25.6069,
North West,Police,Lomanyaneng,Lomanyaneng,-25.8949,25.65939,
North West,Police,Itsoseng,Itsoseng,-26.08725,25.88043,
North West,Police,Mooifontein,Mooifontein,-26.25351,25.60272,
North West,Police,Madibogo,Madibogo,-26.42189,25.1507,
North West,Police,Atamelang,Atamelang,-26.50534,25.37052,
North West,Police,Bedwang,Bedwang,-25.087,27.96893,
North West,Police,Cyferskuil,Cyferskuil,-25.0764,28.24066,
North West,Police,Phokeng,Phokeng,-25.57313,27.16254,
North West,Police,Madikwe,Madikwe,-25.35177,26.52447,
North West,Police,Taung,Taung,-27.54507,24.77898,
North West,Police,Kgomotso,Kgomotso,-27.98218,24.61279,
North West,Police,Reivilo,Reivilo,-27.57072,24.1833,
North West,Police,Potchefstroom,Potchefstroom,-26.71531,27.09456,
North West,Police,Kanana,Kanana,-26.95975,26.64038,
North West,Police,Sun City,Sun City,-25.36291,27.09869,
North West,Police,Stilfontein,Stilfontein,-26.84451,26.7773,
North West,Police,Christiana,Christiana,-27.90918,25.16738,
North West,Police,Lethabong,Lethabong,-25.43625,27.50895,
North West,Police,Marikana,Marikana,-25.70513,27.48645,
North West,Police,Ottoshoop,Ottoshoop,-25.75138,25.96256,
North West,Police,Klerksdorp,Klerksdorp,-26.86353,26.66311,
North West,Police,Mokopong,Mokopong,-25.36555,22.97807,
North West,Police,Vorstershoop,Vorstershoop,-25.83738,23.02448,
North West,Police,Stella,Stella,-26.54945,24.86213,
North West,Police,Setlagole,Setlagole,-26.27157,25.11376,
North West,Police,Biesiesvlei,Biesiesvlei,-26.37833,25.90384,
North West,Police,Piet Plessis,Piet Plessis,-26.1624,24.40795,
North West,Police,Boitekong,Boitekong,-25.60465,27.29704,
North West,Police,Mothutlung,Mothutlung,-25.59975,27.8873,
North West,Police,Klerkskraal,Klerkskraal,-26.25175,27.16339,
North West,Police,Tshidilamolomo,Tshidilamolomo,-25.82608,24.67348,
North West,Police,Huhudi,Huhudi,-26.96691,24.74053,
North West,Police,Ottosdal,Ottosdal,-26.81203,25.99991,
North West,Police,Buffelshoek,Buffelshoek,-26.80295,27.39991,
North West,Police,Ikageng,Ikageng,-26.72025,27.06247,
North West,Police,Leeudoringstad,Leeudoringstad,-27.23507,26.24131,
North West,Police,Makwassie,Makwassie,-27.31268,25.9933,
North West,Police,Wolmaransstad,Wolmaransstad,-27.20175,25.98018,
North West,Police,Jouberton,Jouberton,-26.89184,26.58773,
North West,Police,Coligny,Coligny,-26.3307,26.31738,
North West,Police,Boshoek,Boshoek,-25.72593,24.28325,
North West,Police,Bray,Bray,-25.45771,23.7157,
North West,Police,Orkney,Orkney,-26.97781,26.66994,
North West,Police,Bloemhof,Bloemhof,-27.65256,25.60685,
North West,Police,Bethanie,Bethanie,-25.55175,27.60139,
North West,Police,Assen,Assen,-25.16766,27.60201,
North West,Police,Lethlabile,Lethlabile,-25.49501,27.83781,
North West,Police,Lichtenburg,Lichtenburg,-26.15137,26.15889,
North West,Police,Hartbeesfontein,Hartbeesfontein,-26.75817,26.42618,
North West,Police,Lehurutshe,Lehurutshe,-25.4878,25.98517,
North West,Police,Motswedi,Motswedi,-25.27729,25.88558,
North West,Police,Mooinooi,Mooinooi,-25.75948,27.55002,
North West,Police,Jericho,Jericho,-25.34301,27.81452,
North West,Police,Klipgat,Klipgat,-25.47304,27.98434,
North West,Police,Morokweng,Morokweng,-26.13677,23.77682,
North West,Police,Amalia,Amalia,-27.24996,25.05068,
North West,Police,Tlhabane,Tlhabane,-25.64737,27.21433,
North West,Police,Makapanstad,Makapanstad,-25.23604,28.12209,
North West,Police,Delareyville,Delareyville,-26.69094,25.4567,
North West,Police,Schweizer-Reneke,Schweizer-Reneke,-27.18943,25.33134,
North West,Police,Ipelegeng,Ipelegeng,-27.19638,25.30579,
North West,Police,Rustenburg,Rustenburg,-25.66821,27.24845,
North West,Police,Groot Marico,Groot Marico,-25.59968,26.41868,
North West,Police,Nietverdiend,Nietverdiend,-25.02325,26.15879,
North West,Police,Mogwase,Mogwase,-25.27102,27.23673,
North West,Police,Pudimoe,Pudimoe,-27.4108,24.71941,
North West,Police,Ganyesa,Ganyesa,-26.5997,24.18723,
North West,Police,Makgobistad,Makgobistad,-25.75024,25.10729,
North West,Police,Khuma,Khuma,-26.85147,26.84686,
North West,Police,Brits,Brits,-25.63515,27.77918,
North West,Police,Mahikeng,Mahikeng,-25.86314,25.64055,
North West,Police,Sannieshof,Sannieshof,-26.52925,25.80644,
North West,Police,Boons,Boons,-25.96687,27.23671,
North West,Police,Koster,Koster,-25.86502,26.89748,
North West,Police,Ventersdorp,Ventersdorp,-26.31736,26.82122,
North West,Police,Hartbeespoortdam,Hartbeespoortdam,-25.72447,27.87159,
North West,Police,Hebron,Hebron,-25.54938,28.01714,
Northern Cape,Police,Noenieput,Noenieput,-27.51294,20.14278,
Northern Cape,Police,Nieuwoudtville,Nieuwoudtville,-31.37425,19.11703,
Northern Cape,Police,Springbok,Springbok,-29.66587,17.88498,
Northern Cape,Police,Alexander Bay,Alexander Bay,-28.60706,16.49218,
Northern Cape,Police,Garies,Garies,-30.56504,17.99024,
Northern Cape,Police,Hondeklip Bay,Hondeklip Bay,-30.32269,17.27415,
Northern Cape,Police,Steinkopf,Steinkopf,-29.26636,17.73565,
Northern Cape,Police,Vioolsdrif,Vioolsdrif,-28.76911,17.62354,
Northern Cape,Police,Brandvlei,Brandvlei,-30.46407,20.4897,
Northern Cape,Police,Fraserburg,Fraserburg,-31.91087,21.5136,
Northern Cape,Police,Galeshewe,Galeshewe,-28.71051,24.74277,
Northern Cape,Police,Hartswater,Hartswater,-27.75361,24.80519,
Northern Cape,Police,Jan Kempdorp,Jan Kempdorp,-27.91606,24.83897,
Northern Cape,Police,Pampierstat,Pampierstat,-27.77091,24.69018,
Northern Cape,Police,Pella,Pella,-29.0335,19.15277,
Northern Cape,Police,Rosedale,Rosedale,-28.4542,21.20795,
Northern Cape,Police,Strydenburg,Strydenburg,-29.94306,23.67684,
Northern Cape,Police,Vanderkloof,Vanderkloof,-29.99861,24.74164,
Northern Cape,Police,Sunrise,Sunrise,-30.64993,24.02046,
Northern Cape,Police,Delportshoop,Delportshoop,-28.41605,24.31019,
Northern Cape,Police,Kagisho,Kagisho,-28.7114,24.71971,
Northern Cape,Police,De Aar,De Aar,-30.6606,24.00504,
Northern Cape,Police,Loeriesfontein,Loeriesfontein,-30.95563,19.44893,
Northern Cape,Police,Kimberley,Kimberley,-28.73487,24.7632,
Northern Cape,Police,Plooysburg,Plooysburg,-29.02645,24.23761,
Northern Cape,Police,Warrenton,Warrenton,-28.11489,24.84885,
Northern Cape,Police,Windsorton,Windsorton,-28.32664,24.71082,
Northern Cape,Police,Kamieskroon,Kamieskroon,-30.21307,17.93159,
Northern Cape,Police,Vosburg,Vosburg,-30.57359,22.8814,
Northern Cape,Police,Kuruman,Kuruman,-27.45901,23.43229,
Northern Cape,Police,Niekerkshoop,Niekerkshoop,-29.32683,22.83759,
Northern Cape,Police,Hanover,Hanover,-31.06641,24.44393,
Northern Cape,Police,Colesberg,Colesberg,-30.7197,25.09446,
Northern Cape,Police,Douglas,Douglas,-29.05651,23.77278,
Northern Cape,Police,Barkly West,Barkly West,-28.53715,24.52533,
Northern Cape,Police,Belmont,Belmont,-29.41678,24.36647,
Northern Cape,Police,Boetsap,Boetsap,-27.9761,24.45268,
Northern Cape,Police,Campbell,Campbell,-28.8032,23.71662,
Northern Cape,Police,Aggeneys,Aggeneys,-29.24206,18.84713,
Northern Cape,Police,Nababeep,Nababeep,-29.58775,17.7859,
Northern Cape,Police,Calvinia,Calvinia,-31.47331,19.77337,
Northern Cape,Police,Hopetown,Hopetown,-29.61956,24.08728,
Northern Cape,Police,Augrabies,Augrabies,-28.66908,20.4225,
Northern Cape,Police,Wrenchville,Wrenchville,-27.45275,23.46428,
Northern Cape,Police,Upington,Upington,-28.45019,21.25989,
Northern Cape,Police,Witdraai,Witdraai,-26.95574,20.7058,
Northern Cape,Police,Pofadder,Pofadder,-29.12586,19.39496,
Northern Cape,Police,Groblershoop,Groblershoop,-28.89311,21.98261,
Northern Cape,Police,Kanoneiland,Kanoneiland,-28.65236,21.08695,
Northern Cape,Police,Keimoes,Keimoes,-28.70806,20.97055,
Northern Cape,Police,Rietfontein,Rietfontein,-26.74269,20.0294,
Northern Cape,Police,Onseepkans,Onseepkans,-28.74154,19.30395,
Northern Cape,Police,Deben,Deben,-27.5982,22.88325,
Northern Cape,Police,Bothithong,Bothithong,-27.065,23.82805,
Northern Cape,Police,Tsineng,Tsineng,-27.08513,23.07619,
Northern Cape,Police,Kakamas,Kakamas,-28.77074,20.61854,
Northern Cape,Police,Kenhardt,Kenhardt,-29.3466,21.15192,
Northern Cape,Police,Kathu,Kathu,-27.69892,23.04492,
Northern Cape,Police,Modder River,Modder River,-29.03196,24.62926,
Northern Cape,Police,Carnarvon,Carnarvon,-30.96943,22.1259,
Northern Cape,Police,Middelpos,Middelpos,-31.90632,20.232,
Northern Cape,Police,Sutherland,Sutherland,-32.39583,20.66037,
Northern Cape,Police,Norvalspont,Norvalspont,-30.63228,25.45104,
Northern Cape,Police,Loxton,Loxton,-31.4772,22.34998,
Northern Cape,Police,Noupoort,Noupoort,-31.17601,24.95116,
Northern Cape,Police,Richmond(C),Richmond(C),-31.41508,23.94401,
Northern Cape,Police,Lime Acres,Lime Acres,-28.35892,23.52467,
Northern Cape,Police,Olifantshoek,Olifantshoek,-27.94753,22.73744,
Northern Cape,Police,Severn,Severn,-26.58681,22.85903,
Northern Cape,Police,Van Zylsrus,Van Zylsrus,-26.87679,22.05007,
Northern Cape,Police,Vanwyksvlei,Vanwyksvlei,-30.35067,21.82435,
Northern Cape,Police,Komaggas,Komaggas,-29.79486,17.48749,
Northern Cape,Police,Mothibistad,Mothibistad,-27.39776,23.49068,
Northern Cape,Police,Batlharos,Batlharos,-27.30544,23.34164,
Northern Cape,Police,Heuningvlei,Heuningvlei,-26.2937,23.17961,
Northern Cape,Police,Kleinsee,Kleinsee,-29.66193,17.07984,
Northern Cape,Police,Port Nolloth,Port Nolloth,-29.25463,16.86932,
Northern Cape,Police,Roodepan,Roodepan,-28.67237,24.73012,
Northern Cape,Police,Britstown,Britstown,-30.59218,23.4996,
Northern Cape,Police,Griekwastad,Griekwastad,-28.84759,23.25104,
Northern Cape,Police,Postmasburg,Postmasburg,-28.33124,23.0668,
Northern Cape,Police,Marydale,Marydale,-29.40618,22.10618,
Northern Cape,Police,Petrusville,Petrusville,-30.07724,24.65858,
Northern Cape,Police,Philipstown,Philipstown,-30.43415,24.47417,
Northern Cape,Police,Prieska,Prieska,-29.6724,22.74069,
Northern Cape,Police,Danielskuil,Danielskuil,-28.18239,23.54306,
Northern Cape,Police,Williston,Williston,-31.3428,20.91551,
Northern Cape,Police,Dingleton,Dingleton,-27.78413,22.98298,
Northern Cape,Police,Kuyasa,Kuyasa,-30.71908,25.10707,
Northern Cape,Police,Victoria West,Victoria West,-31.40416,23.11399,
Northern Cape,Police,Pabalello,Pabalello,-28.44386,21.2221,
Western Cape,Police,Graafwater,Graafwater,-32.15174,18.60647,
Western Cape,Police,Villiersdorp,Villiersdorp,-33.99243,19.28734,
Western Cape,Police,Bredasdorp,Bredasdorp,-34.53644,20.04727,
Western Cape,Police,Caledon,Caledon,-34.23493,19.42919,
Western Cape,Police,Gans Bay,Gans Bay,-34.57818,19.35139,
Western Cape,Police,Rondebosch,Rondebosch,-33.96262,18.46833,
Western Cape,Police,Muizenberg,Muizenberg,-34.10872,18.46663,
Western Cape,Police,Robertson,Robertson,-33.80517,19.87543,
Western Cape,Police,Lwandle,Lwandle,-34.11561,18.86718,
Western Cape,Police,Paarl East,Paarl East,-33.71148,18.99406,
Western Cape,Police,Philippi,Philippi,-34.00107,18.54054,
Western Cape,Police,Langebaan,Langebaan,-33.09287,18.03349,
Western Cape,Police,Moorreesburg,Moorreesburg,-33.15359,18.66466,
Western Cape,Police,Piketberg,Piketberg,-32.90627,18.75449,
Western Cape,Police,Redelinghuys,Redelinghuys,-32.47741,18.53737,
Western Cape,Police,St Helena Bay,St Helena Bay,-32.75816,18.02407,
Western Cape,Police,Vredenburg,Vredenburg,-32.90673,18.00228,
Western Cape,Police,Citrusdal,Citrusdal,-32.58829,19.01101,
Western Cape,Police,Clanwilliam,Clanwilliam,-32.17615,18.89226,
Western Cape,Police,Doring Bay,Doring Bay,-31.81174,18.23678,
Western Cape,Police,Swellendam,Swellendam,-34.02047,20.44455,
Western Cape,Police,Mfuleni,Mfuleni,-33.98106,18.68742,
Western Cape,Police,Riebeek West,Riebeek West,-33.35093,18.8727,
Western Cape,Police,Wellington,Wellington,-33.64022,19.00515,
Western Cape,Police,Tulbagh,Tulbagh,-33.28503,19.14052,
Western Cape,Police,Harare,Harare,-34.05193,18.6693,
Western Cape,Police,Kleinvlei,Kleinvlei,-33.9882,18.71879,
Western Cape,Police,Grabouw,Grabouw,-34.15381,19.01901,
Western Cape,Police,Hermanus,Hermanus,-34.41859,19.23623,
Western Cape,Police,Kleinmond,Kleinmond,-34.33963,19.03232,
Western Cape,Police,Napier,Napier,-34.4756,19.89561,
Western Cape,Police,Strand,Strand,-34.11592,18.83286,
Western Cape,Police,Lingelethu-West,Lingelethu-West,-34.04298,18.66004,
Western Cape,Police,Groot-Drakenstein,Groot-Drakenstein,-33.86616,18.97776,
Western Cape,Police,Mowbray,Mowbray,-33.95012,18.47228,
Western Cape,Police,Hout Bay,Hout Bay,-34.03052,18.35674,
Western Cape,Police,Montagu,Montagu,-33.7846,20.12967,
Western Cape,Police,Dieprivier,Dieprivier,-34.03161,18.46485,
Western Cape,Police,Claremont,Claremont,-33.98442,18.47286,
Western Cape,Police,Saron,Saron,-33.18409,18.99944,
Western Cape,Police,Malmesbury,Malmesbury,-33.45354,18.72971,
Western Cape,Police,Porterville,Porterville,-33.01164,18.99274,
Western Cape,Police,Saldanha,Saldanha,-33.00962,17.93958,
Western Cape,Police,Khayelitsha,Khayelitsha,-34.02464,18.66599,
Western Cape,Police,Woodstock,Woodstock,-33.92897,18.44814,
Western Cape,Police,Riviersonderend,Riviersonderend,-34.15086,19.92037,
Western Cape,Police,Somerset West,Somerset West,-34.07682,18.84466,
Western Cape,Police,Struisbaai,Struisbaai,-34.80059,20.05088,
Western Cape,Police,Cloetesville,Cloetesville,-33.92257,18.85526,
Western Cape,Police,Oudtshoorn,Oudtshoorn,-33.58986,22.20401,
Western Cape,Police,Uniondale,Uniondale,-33.6573,23.12582,
Western Cape,Police,Ladismith,Ladismith,-33.49487,21.2683,
Western Cape,Police,Still Bay,Still Bay,-34.37743,21.41184,
Western Cape,Police,Laingsburg,Laingsburg,-33.19758,20.85937,
Western Cape,Police,Murraysburg,Murraysburg,-31.96489,23.76155,
Western Cape,Police,Cape Town Central,Cape Town Central,-33.92774,18.4231,
Western Cape,Police,Camps Bay,Camps Bay,-33.95604,18.37672,
Western Cape,Police,Maitland,Maitland,-33.92367,18.48325,
Western Cape,Police,Milnerton,Milnerton,-33.87562,18.50175,
Western Cape,Police,Pinelands,Pinelands,-33.92691,18.50137,
Western Cape,Police,Kensington,Kensington,-33.90953,18.51064,
Western Cape,Police,Delft,Delft,-33.97502,18.64209,
Western Cape,Police,Bellville,Bellville,-33.90206,18.6221,
Western Cape,Police,Simon'S Town,Simon'S Town,-34.19313,18.43659,
Western Cape,Police,Kuilsrivier,Kuilsrivier,-33.93231,18.6825,
Western Cape,Police,Touws River,Touws River,-33.33927,20.03179,
Western Cape,Police,Suurbraak,Suurbraak,-34.0046,20.654,
Western Cape,Police,Rawsonville,Rawsonville,-33.68464,19.30908,
Western Cape,Police,Da Gamaskop,Da Gamaskop,-34.17631,22.11733,
Western Cape,Police,Leeu Gamka,Leeu Gamka,-32.77896,21.97303,
Western Cape,Police,Thembalethu,Thembalethu,-34.00341,22.48547,
Western Cape,Police,Kwanonqaba,Kwanonqaba,-34.17612,22.09112,
Western Cape,Police,Kwanokuthula,Kwanokuthula,-34.05359,23.32062,
Western Cape,Police,Conville,Conville,-33.98272,22.47327,
Western Cape,Police,Klawer,Klawer,-31.77222,18.62512,
Western Cape,Police,Lambertsbaai,Lambertsbaai,-32.09251,18.30541,
Western Cape,Police,Sea Point,Sea Point,-33.90553,18.39946,
Western Cape,Police,Nuwerus,Nuwerus,-31.14968,18.35712,
Western Cape,Police,Vanrhynsdorp,Vanrhynsdorp,-31.6083,18.74001,
Western Cape,Police,Belhar,Belhar,-33.94692,18.64877,
Western Cape,Police,Prince Alfred Hamlet,Prince Alfred Hamlet,-33.29353,19.32863,
Western Cape,Police,De Doorns,De Doorns,-33.47424,19.66581,
Western Cape,Police,Klapmuts,Klapmuts,-33.80679,18.86272,
Western Cape,Police,Parow,Parow,-33.90469,18.59561,
Western Cape,Police,Barrydale,Barrydale,-33.90276,20.72117,
Western Cape,Police,Ashton,Ashton,-33.83361,20.06699,
Western Cape,Police,Steenberg,Steenberg,-34.06542,18.47621,
Western Cape,Police,Philippi East,Philippi East,-34.01031,18.60685,
Western Cape,Police,Fish Hoek,Fish Hoek,-34.13289,18.43492,
Western Cape,Police,Vredendal,Vredendal,-31.66088,18.51031,
Western Cape,Police,Elsies River,Elsies River,-33.92441,18.56443,
Western Cape,Police,Lutzville,Lutzville,-31.55902,18.34501,
Western Cape,Police,Ceres,Ceres,-33.36941,19.31159,
Western Cape,Police,Bonnievale,Bonnievale,-33.93905,20.09825,
Western Cape,Police,Goodwood,Goodwood,-33.90888,18.56195,
Western Cape,Police,Kraaifontein,Kraaifontein,-33.857,18.7273,
Western Cape,Police,Gugulethu,Gugulethu,-33.97497,18.56331,
Western Cape,Police,Manenberg,Manenberg,-33.97186,18.55608,
Western Cape,Police,Mitchells Plain,Mitchells Plain,-34.04761,18.62321,
Western Cape,Police,Calitzdorp,Calitzdorp,-33.53339,21.68666,
Western Cape,Police,Athlone,Athlone,-33.96157,18.50724,
Western Cape,Police,Bishop Lavis,Bishop Lavis,-33.94634,18.57224,
Western Cape,Police,De Rust,De Rust,-33.48874,22.53451,
Western Cape,Police,George,George,-33.95658,22.46031,
Western Cape,Police,Knysna,Knysna,-34.03629,23.05145,
Western Cape,Police,Mossel Bay,Mossel Bay,-34.18145,22.14066,
Western Cape,Police,Albertinia,Albertinia,-34.2086,21.58325,
Western Cape,Police,Groot Brakrivier,Groot Brakrivier,-34.05469,22.21906,
Western Cape,Police,Riversdale,Riversdale,-34.09338,21.26123,
Western Cape,Police,Beaufort West,Beaufort West,-32.34946,22.58486,
Western Cape,Police,Laaiplek,Laaiplek,-32.77115,18.15646,
Western Cape,Police,Bothasig,Bothasig,-33.85506,18.54346,
Western Cape,Police,Prince Albert,Prince Albert,-33.21944,22.02828,
Western Cape,Police,Wolseley,Wolseley,-33.4144,19.20104,
Western Cape,Police,Ravensmead,Ravensmead,-33.92226,18.5973,
Western Cape,Police,Lentegeur,Lentegeur,-34.03613,18.6107,
Western Cape,Police,Franschhoek,Franschhoek,-33.9122,19.12143,
Western Cape,Police,Hopefield,Hopefield,-33.06525,18.34998,
Western Cape,Police,Brackenfell,Brackenfell,-33.87196,18.68164,
Western Cape,Police,Stellenbosch,Stellenbosch,-33.93575,18.85592,
Western Cape,Police,Mcgregor,Mcgregor,-33.9463,19.82949,
Western Cape,Police,Stanford,Stanford,-34.43881,19.45789,
Western Cape,Police,Table View,Table View,-33.82635,18.4893,
Western Cape,Police,Mbekweni,Mbekweni,-33.67287,18.99789,
Western Cape,Police,Heidelberg(C),Heidelberg(C),-34.08899,20.95543,
Western Cape,Police,Plettenberg Bay,Plettenberg Bay,-34.05783,23.37196,
Western Cape,Police,Pacaltsdorp,Pacaltsdorp,-34.02196,22.45031,
Western Cape,Police,Langa,Langa,-33.94453,18.52647,
Western Cape,Police,Lansdowne,Lansdowne,-33.99054,18.50523,
Western Cape,Police,Philadelphia,Philadelphia,-33.66565,18.58239,
Western Cape,Police,Elands Bay,Elands Bay,-32.31333,18.34069,
Western Cape,Police,Worcester,Worcester,-33.64546,19.44373,
Western Cape,Police,Strandfontein,Strandfontein,-34.07212,18.57684,
Western Cape,Police,Macassar,Macassar,-34.06112,18.76276,
Western Cape,Police,Ocean View,Ocean View,-34.14435,18.34645,
Western Cape,Police,Bellville South,Bellville South,-33.91541,18.64655,
Western Cape,Police,Durbanville,Durbanville,-33.83389,18.64929,
Western Cape,Police,Dysselsdorp,Dysselsdorp,-33.57618,22.4346,
Western Cape,Police,Genadendal,Genadendal,-34.04481,19.5628,
Western Cape,Police,Gordons Bay,Gordons Bay,-34.15908,18.86941,
Western Cape,Police,Melkbosstrand,Melkbosstrand,-33.72733,18.4481,
Western Cape,Police,Atlantis,Atlantis,-33.56479,18.49318,
Western Cape,Police,Table Bay Harbour,Table Bay Harbour,-33.91001,18.42454,
Western Cape,Police,Wynberg,Wynberg,-34.00399,18.46505,
Western Cape,Police,Grassy Park,Grassy Park,-34.04863,18.49523,
Western Cape,Police,Nyanga,Nyanga,-33.98896,18.58342,
Western Cape,Police,Paarl,Paarl,-33.73854,18.96916,
Western Cape,Police,Darling,Darling,-33.37637,18.38199,
Western Cape,Police,Eendekuil,Eendekuil,-32.6894,18.882,
Western Cape,Police,Kirstenhof,Kirstenhof,-34.07219,18.45524,
